#aV2019  7  7  0  0  0.00000000     288 DD+AD WGS84 FIT  NGA
## 2061      0.00000000   300.00000000 58671 0.0000000000000
+   31     1  2  3  5  6  7  8  9 10 11 12 13 14 15 16 17 18
+         19 20 21 22 23 24 25 26 27 28 29 30 31 32  0  0  0
+          0  0  0  0  0  0  0  0  0  0  0  0  0  0  0  0  0
+          0  0  0  0  0  0  0  0  0  0  0  0  0  0  0  0  0
+          0  0  0  0  0  0  0  0  0  0  0  0  0  0  0  0  0
++         2  2  2  2  2  2  2  2  2  2  2  2  2  2  2  2  2
++         2  2  2  2  2  2  2  2  2  2  2  2  2  2  0  0  0
++         0  0  0  0  0  0  0  0  0  0  0  0  0  0  0  0  0
++         0  0  0  0  0  0  0  0  0  0  0  0  0  0  0  0  0
++         0  0  0  0  0  0  0  0  0  0  0  0  0  0  0  0  0
%c cc cc ccc ccc cccc cccc cccc cccc ccccc ccccc ccccc ccccc
%c cc cc ccc ccc cccc cccc cccc cccc ccccc ccccc ccccc ccccc
%f  0.0000000  0.000000000  0.00000000000  0.000000000000000
%f  0.0000000  0.000000000  0.00000000000  0.000000000000000
%i    0    0    0    0      0      0      0      0         0
%i    0    0    0    0      0      0      0      0         0
/*      NGA, ST. LOUIS,MO.                                  
/*   EPHEMERIS COMPUTED FROM 2 DAYS OF DATA                 
/*   EPOCHA v5 SMOOTHER                                     
/*   G1762 IERS2010 SATAF SATAPC                            
*  2019  7  7  4 30  0.00000000
P  1 -14281.662447   3905.902482  21847.430638    -60.463701                    
V  1  -5766.718848 -27578.013639   1464.006330     -0.103154                    
P  2  14280.405638  18083.357637 -12729.384424   -254.414167                    
V  2   2117.094436  17157.154184  25397.416005     -0.087177                    
P  3 -22192.686759  11292.728816   9069.202129    182.428410                    
V  3   6964.298710  -9628.787190  28978.159396     -0.019253                    
P  5  14985.753171   6587.389066 -21076.048331      0.179847                    
V  5 -18859.893164  18587.952575  -7440.588150     -0.002136                    
P  6   6263.255340  25758.187605  -1279.749786    156.914144                    
V  6  -1974.312569   2121.607130  32054.906769     -0.110877                    
P  7  -8245.005225  18702.825753 -16425.607267    -59.276727                    
V  7  -6326.034656 -20754.954552 -20602.471094     -0.076899                    
P  8 -25796.949333  -4446.931606   5143.973368   -150.241440                    
V  8  -5465.125450  -4114.943410 -30936.629092     -0.014893                    
P  9 -12957.188034  11128.173403 -20380.859591    376.299429                    
V  9 -24312.856176  -8754.446372  10688.069128     -0.081450                    
P 10   6037.149284 -20294.517553  15972.981374     -7.696970                    
V 10  16400.214608 -12025.033911 -21759.681074     -0.127228                    
P 11 -17957.647138    745.728450  18949.508940   -567.286855                    
V 11 -13852.471728 -21474.931248 -12218.340032      0.091710                    
P 12  22543.910030  -8206.530690  10995.565020    226.268261                    
V 12 -10072.861489  10372.526298  28007.786635     -0.036056                    
P 13  22947.360247  13132.365015  -2930.289347    -55.765794                    
V 13  -4320.228388    752.526343 -31580.698872      0.017190                    
P 14 -13055.747465 -17409.340868  15680.683682    -72.703745                    
V 14  18432.261569   5836.979753  22113.244336      0.017684                    
P 15  26138.372994   2010.174684   5144.135303   -302.492525                    
V 15   5884.967819   4885.219079 -29841.335544      0.024018                    
P 16 -14112.238072  -7370.039138 -21523.211796    -54.115569                    
V 16  21246.508455 -16238.794271  -8025.933294     -0.031905                    
P 17   4873.421049  16610.827562  20577.819743     84.319950                    
V 17 -23645.231298  -8538.679762  12662.177647      0.065547                    
P 18 -16049.215572  -5881.445368  19863.434905     67.871954                    
V 18  -5483.950447 -25769.998915 -11646.904856      0.030255                    
P 19  11715.960148  17119.919797  16246.945596   -297.347805                    
V 19 -19981.823496  -7204.112034  21652.491901      0.048207                    
P 20  12457.166292 -22213.981406   7140.574323    525.814099                    
V 20   8893.591099  -4540.310955 -29377.212422      0.001883                    
P 21   2914.268133 -23018.726823 -12279.329291   -159.382258                    
V 21   7001.744685  15538.841049 -25656.558798      0.070682                    
P 22 -21146.298034   5317.647227  15338.158470   -727.612404                    
V 22  11445.829831 -15647.821554  21614.843372     -0.052712                    
P 23 -23515.339953   2013.248730 -12221.707549   -178.412800                    
V 23 -14473.120770  -7187.171727  25542.194959      0.017642                    
P 24  15805.474518   -955.702396  21193.081783    -68.495119                    
V 24   6667.027223  26510.002416  -3418.190356     -0.004975                    
P 25  19450.729239 -17876.709446   -720.002078   -771.537998                    
V 25   2312.569750   1611.245361  32106.862781     -0.028197                    
P 26  -5553.540192 -15303.801096 -20974.553740    245.101112                    
V 26  20008.231483 -17632.643876   7749.885221      0.093001                    
P 27 -22651.661794 -12389.675852  -6984.333560   -177.910962                    
V 27   8787.238062    905.343233 -30306.914831     -0.106118                    
P 28  -7805.438775  19666.782589  16718.940329    766.764612                    
V 28 -16798.121734  10943.163037 -21405.915826     -0.004524                    
P 29  16700.978183  -7125.046207 -19426.999395    157.865017                    
V 29  22362.839889  10101.350922  15535.536121     -0.097179                    
P 30  -1563.938797  25260.940832  -7694.408592   -138.188237                    
V 30  -4939.652825  -9212.149880 -29328.629199     -0.074909                    
P 31  -6705.862622 -25254.347455  -3145.894235     26.033500                    
V 31   2453.165497  -4541.073510  31685.513261     -0.026324                    
P 32  -6179.256695 -16687.996026  19816.647439    -13.116242                    
V 32  24147.091692   6592.655436  13004.058418      0.154782                    
EOF
